NORAD_CAT_ID,OBJECT_NAME,OBJECT_TYPE,EPOCH,MEAN_MOTION,ECCENTRICITY,INCLINATION,RA_OF_ASC_NODE,ARG_OF_PERICENTER,MEAN_ANOMALY,BSTAR,MEAN_MOTION_DOT,MEAN_MOTION_DDOT,TLE_LINE0,TLE_LINE1,TLE_LINE2,SEMIMAJOR_AXIS,PERIOD,APOGEE,PERIGEE,DECAYED
54176.0,STARLINK-5154,PAYLOAD,2022-11-14 14:00:01,15.73177264,0.0002608,53.217,57.0976,22.109,22.3728,0.00039048,0.00054489,0.0,0 STARLINK-5154,1 54176U 22141V   22318.58334491  .00054489  00000-0  39048-3 0  9993,2 54176  53.2170  57.0976 0002608  22.1090  22.3728 15.73177264  2792,6727.96,91.535,351.58,348.07,0.0
54176.0,STARLINK-5154,PAYLOAD,2022-11-14 22:00:00,15.73274687,0.0002648999999999,53.2169,55.4458,22.1088,111.2849,-0.00051838,-0.00072992,0.0,0 STARLINK-5154,1 54176U 22141V   22318.91667824 -.00072992  00000-0 -51838-3 0  9991,2 54176  53.2169  55.4458 0002649  22.1088 111.2849 15.73274687  1304,6727.682,91.529,351.329,347.765,0.0
54176.0,STARLINK-5154,PAYLOAD,2022-11-15 06:00:00,15.73217671,0.0002488,53.2174,53.7965,22.5941,199.7569,-0.00012946,-0.00018767,0.0,0 STARLINK-5154,1 54176U 22141V   22319.25001157 -.00018767  00000-0 -12946-3 0  9997,2 54176  53.2174  53.7965 0002488  22.5941 199.7569 15.73217671  2892,6727.845,91.532,351.384,348.036,0.0
54176.0,STARLINK-5154,PAYLOAD,2022-11-15 14:00:01,15.73297861,0.0002517,53.2175,52.1465,20.5868,290.7185,-0.0013463,-0.00186263,0.0,0 STARLINK-5154,1 54176U 22141V   22319.58334491 -.00186263  00000-0 -13463-2 0  9994,2 54176  53.2175  52.1465 0002517  20.5868 290.7185 15.73297861  2941,6727.616,91.527,351.175,347.788,0.0
54176.0,STARLINK-5154,PAYLOAD,2022-11-15 22:00:00,15.7318649,0.0002283,53.2172,50.4944,18.824,21.4401,0.00020966,0.0002889,0.0,0 STARLINK-5154,1 54176U 22141V   22319.91667824  .00028890  00000-0  20966-3 0  9996,2 54176  53.2172  50.4944 0002283  18.8240  21.4401 15.73186490  3008,6727.934,91.534,351.335,348.26300000000015,0.0
54176.0,STARLINK-5154,PAYLOAD,2022-11-16 14:00:01,15.73204552,0.0002257,53.2173,47.1959,19.3524,198.8371,-2.8154e-06,-1.017e-05,0.0,0 STARLINK-5154,1 54176U 22141V   22320.58335648 -.00001017  00000-0 -28154-5 0  9990,2 54176  53.2173  47.1959 0002257  19.3524 198.8371 15.73204552  3106,6727.882,91.533,351.266,348.22900000000016,0.0
54176.0,STARLINK-5154,PAYLOAD,2022-11-16 22:00:08,15.73205448,0.00022,53.2173,45.5448,18.3088,289.209,-1.7267999999999998e-05,-3.045e-05,0.0,0 STARLINK-5154,1 54176U 22141V   22320.91675926 -.00003045  00000-0 -17268-4 0  9999,2 54176  53.2173  45.5448 0002200  18.3088 289.2090 15.73205448  1301,6727.88,91.533,351.225,348.265,0.0
54176.0,STARLINK-5154,PAYLOAD,2022-11-17 04:00:00,15.73187529,0.0002768,53.2174,44.3114,15.3472,268.5089,-0.00013909,-0.00020089,0.0,0 STARLINK-5154,1 54176U 22141V   22321.16667824 -.00020089  00000-0 -13909-3 0  9999,2 54176  53.2174  44.3114 0002768  15.3472 268.5089 15.73187529  3198,6727.931,91.534,351.658,347.93300000000005,0.0
54176.0,STARLINK-5154,PAYLOAD,2022-11-17 14:00:01,15.73134293,0.0003191999999999,53.2177,42.2519,19.5789,105.3973,0.0004382,0.00061165,0.0,0 STARLINK-5154,1 54176U 22141V   22321.58334491  .00061165  00000-0  43820-3 0  9999,2 54176  53.2177  42.2519 0003192  19.5789 105.3973 15.73134293  1307,6728.083000000001,91.537,352.095,347.8,0.0
54176.0,STARLINK-5154,PAYLOAD,2022-11-17 22:00:00,15.73199846,0.0003114,53.2175,40.6013,19.5109,194.3394,6.764600000000001e-05,8.883e-05,0.0,0 STARLINK-5154,1 54176U 22141V   22321.91667824  .00008883  00000-0  67646-4 0  9996,2 54176  53.2175  40.6013 0003114  19.5109 194.3394 15.73199846  1306,6727.896,91.533,351.856,347.666,0.0
54176.0,STARLINK-5154,PAYLOAD,2022-11-18 06:00:00,15.73228379,0.0002966,53.2177,38.9513,19.9555,282.8222,-0.0002505,-0.00035681,0.0,0 STARLINK-5154,1 54176U 22141V   22322.25001157 -.00035681  00000-0 -25050-3 0  9995,2 54176  53.2177  38.9513 0002966  19.9555 282.8222 15.73228379  3361,6727.814,91.532,351.675,347.684,0.0
54176.0,STARLINK-5154,PAYLOAD,2022-11-18 14:00:01,15.73251448,0.0003137,53.2174,37.3013,19.1306,12.6057,-0.0007811,-0.0010911,0.0,0 STARLINK-5154,1 54176U 22141V   22322.58334491 -.00109110  00000-0 -78110-3 0  9995,2 54176  53.2174  37.3013 0003137  19.1306  12.6057 15.73251448  1303,6727.748000000001,91.53,351.724,347.50300000000016,0.0
54176.0,STARLINK-5154,PAYLOAD,2022-11-18 20:00:01,15.732694,0.0003236,53.2175,36.0658,14.9153,353.5179,-0.00061676,-0.00086581,0.0,0 STARLINK-5154,1 54176U 22141V   22322.83334491 -.00086581  00000-0 -61676-3 0  9998,2 54176  53.2175  36.0658 0003236  14.9153 353.5179 15.73269400  3466,6727.696999999999,91.529,351.73900000000015,347.385,0.0
54176.0,STARLINK-5154,PAYLOAD,2022-11-18 22:00:00,15.73264534,0.000315,53.2178,35.6529,14.7658,105.9142,-0.00068575,-0.00096067,0.0,0 STARLINK-5154,1 54176U 22141V   22322.91667824 -.00096067  00000-0 -68575-3 0  9991,2 54176  53.2178  35.6529 0003150  14.7658 105.9142 15.73264534  1307,6727.7109999999975,91.529,351.695,347.457,0.0
54176.0,STARLINK-5154,PAYLOAD,2022-11-19 06:00:00,15.7323652,0.0003045,53.2181,34.0028,14.9334,194.7051,-7.079e-06,-1.618e-05,0.0,0 STARLINK-5154,1 54176U 22141V   22323.25001157 -.00001618  00000-0 -70790-5 0  9992,2 54176  53.2181  34.0028 0003045  14.9334 194.7051 15.73236520  3529,6727.791,91.531,351.705,347.607,0.0
54176.0,STARLINK-5154,PAYLOAD,2022-11-19 14:00:01,15.73177567,0.0003402,53.2182,32.3552,12.6759,285.9453,0.00040481,0.00056532,0.0,0 STARLINK-5154,1 54176U 22141V   22323.58334491  .00056532  00000-0  40481-3 0  9993,2 54176  53.2182  32.3552 0003402  12.6759 285.9453 15.73177567  1304,6727.959,91.534,352.11300000000006,347.535,0.0
54176.0,STARLINK-5154,PAYLOAD,2022-11-19 20:00:01,15.73245625,0.0003303,53.2178,31.1171,9.6872,265.6119,-0.00033362,-0.00047289,0.0,0 STARLINK-5154,1 54176U 22141V   22323.83334491 -.00047289  00000-0 -33362-3 0  9992,2 54176  53.2178  31.1171 0003303   9.6872 265.6119 15.73245625  3616,6727.765,91.531,351.852,347.408,0.0
54176.0,STARLINK-5154,PAYLOAD,2022-11-19 22:00:00,15.73249191,0.0003222,53.218,30.7043,9.4095,18.1297,-0.00046416,-0.00065418,0.0,0 STARLINK-5154,1 54176U 22141V   22323.91667824 -.00065418  00000-0 -46416-3 0  9998,2 54176  53.2180  30.7043 0003222   9.4095  18.1297 15.73249191  1301,6727.755,91.53,351.788,347.452,0.0
54176.0,STARLINK-5154,PAYLOAD,2022-11-20 14:00:01,15.73134676,0.0003472,53.2179,27.4072,5.9736,199.4709,0.00059741,0.00083846,0.0,0 STARLINK-5154,1 54176U 22141V   22324.58334491  .00083846  00000-0  59741-3 0  9991,2 54176  53.2179  27.4072 0003472   5.9736 199.4709 15.73134676  1306,6728.081,91.537,352.282,347.61,0.0
54176.0,STARLINK-5154,PAYLOAD,2022-11-20 22:00:00,15.73216337,0.0003316,53.218,25.7561,7.6848,286.642,-0.00046325,-0.00065203,0.0,0 STARLINK-5154,1 54176U 22141V   22324.91667824 -.00065203  00000-0 -46325-3 0  9990,2 54176  53.2180  25.7561 0003316   7.6848 286.6420 15.73216337  3780,6727.849,91.532,351.945,347.483,0.0
54176.0,STARLINK-5154,PAYLOAD,2022-11-21 14:00:01,15.73176235,0.0003669,53.2182,22.4591,12.2378,99.926,0.00071145,0.0010035,0.0,0 STARLINK-5154,1 54176U 22141V   22325.58334491  .00100350  00000-0  71145-3 0  9994,2 54176  53.2182  22.4591 0003669  12.2378  99.9260 15.73176235  3891,6727.9630000000025,91.535,352.296,347.3590000000001,0.0
54176.0,STARLINK-5154,PAYLOAD,2022-11-21 22:00:00,15.73247485,0.0003511,53.2181,20.8078,11.0876,190.0176,-0.00038616,-0.00054598,0.0,0 STARLINK-5154,1 54176U 22141V   22325.91667824 -.00054598  00000-0 -38616-3 0  9990,2 54176  53.2181  20.8078 0003511  11.0876 190.0176 15.73247485  3949,6727.76,91.53,351.987,347.26300000000015,0.0
54176.0,STARLINK-5154,PAYLOAD,2022-11-22 06:00:02,15.73252218,0.0003446,53.2179,19.1586,9.8067,280.3142,-0.00024545,-0.00035017,0.0,0 STARLINK-5154,1 54176U 22141V   22326.25002315 -.00035017  00000-0 -24545-3 0  9997,2 54176  53.2179  19.1586 0003446   9.8067 280.3142 15.73252218  3996,6727.746,91.53,351.93,347.293,0.0
54176.0,STARLINK-5154,PAYLOAD,2022-11-22 14:00:01,15.73195467,0.0003708,53.2175,17.5109,7.3401,11.759,3.4807e-05,4.264e-05,0.0,0 STARLINK-5154,1 54176U 22141V   22326.58335648  .00004264  00000-0  34807-4 0  9992,2 54176  53.2175  17.5109 0003708   7.3401  11.7590 15.73195467  1309,6727.908,91.533,352.26800000000014,347.278,0.0
54176.0,STARLINK-5154,PAYLOAD,2022-11-22 20:00:01,15.73196628,0.0003565,53.2175,16.2724,5.7566,349.9701,-0.00030768,-0.00043591,0.0,0 STARLINK-5154,1 54176U 22141V   22326.83334491 -.00043591  00000-0 -30768-3 0  9994,2 54176  53.2175  16.2724 0003565   5.7566 349.9701 15.73196628  4092,6727.905,91.533,352.168,347.371,0.0
54176.0,STARLINK-5154,PAYLOAD,2022-11-22 22:00:00,15.73154887,0.0003507,53.2176,15.8595,4.7158,103.2508,0.00028887,0.00040044,0.0,0 STARLINK-5154,1 54176U 22141V   22326.91667824  .00040044  00000-0  28887-3 0  9999,2 54176  53.2176  15.8595 0003507   4.7158 103.2508 15.73154887  1304,6728.024,91.536,352.24800000000016,347.529,0.0
54176.0,STARLINK-5154,PAYLOAD,2022-11-23 06:00:00,15.73198937,0.0003561,53.2178,14.2104,7.0732,189.7756,0.00014905,0.00020351,0.0,0 STARLINK-5154,1 54176U 22141V   22327.25001157  .00020351  00000-0  14905-3 0  9993,2 54176  53.2178  14.2104 0003561   7.0732 189.7756 15.73198937  4153,6727.898,91.533,352.159,347.367,0.0
54176.0,STARLINK-5154,PAYLOAD,2022-11-23 14:00:01,15.73214624,0.0003857,53.2176,12.5625,5.4786,280.3081,-0.00011379,-0.0001658,0.0,0 STARLINK-5154,1 54176U 22141V   22327.58334491 -.00016580  00000-0 -11379-3 0  9992,2 54176  53.2176  12.5625 0003857   5.4786 280.3081 15.73214624  1304,6727.853,91.532,352.31300000000016,347.124,0.0
54176.0,STARLINK-5154,PAYLOAD,2022-11-23 22:00:00,15.73171336,0.0003659,53.2175,10.911,5.4325,9.3013,0.00044302,0.00061954,0.0,0 STARLINK-5154,1 54176U 22141V   22327.91667824  .00061954  00000-0  44302-3 0  9993,2 54176  53.2175  10.9110 0003659   5.4325   9.3013 15.73171336  4267,6727.977,91.535,352.30400000000014,347.38,0.0
